JILIN-1 07              
1 43159U 18008E   26185.30443457  .00011420  00000+0  33799-3 0  9992
2 43159  97.1763 204.7785 0008031  10.7227 349.4186 15.35016425467623
JILIN-1 08              
1 43160U 18008F   26185.51213256  .00009903  00000+0  30389-3 0  9994
2 43160  97.1798 204.2782 0006622  30.1470 330.0153 15.33918461467602
S-NET D                 
1 43186U 18014G   26185.48271858  .00009180  00000+0  46959-3 0  9994
2 43186  97.5342  90.1654 0006988 330.2368  29.8466 15.16844458461388
S-NET B                 
1 43187U 18014H   26185.16466080  .00006505  00000+0  33423-3 0  9993
2 43187  97.5348  89.8363 0007562 325.2617  34.8121 15.16805289461335
S-NET A                 
1 43188U 18014J   26185.48150044  .00009299  00000+0  47549-3 0  9996
2 43188  97.5358  90.3636 0007418 325.0367  35.0378 15.16853371461384
S-NET C                 
1 43189U 18014K   26184.70683086  .00005845  00000+0  30072-3 0  9994
2 43189  97.5379  89.6708 0008639 318.2558  41.8015 15.16791813459811
PAZ                     
1 43215U 18020A   26184.50820618  .00002529  00000+0  12353-3 0  9991
2 43215  97.4451 191.6618 0001760  89.4544 270.6892 15.19162918463489
GOES 17                 
1 43226U 18022A   26185.56094191 -.00000170  00000+0  00000+0 0  9994
2 43226   0.9785  85.4405 0000703  51.4573 258.1135  1.00271170 30590
LKW-4                   
1 43236U 18025A   26184.91789181  .00049634  00000+0  53251-3 0  9993
2 43236  97.6355 357.1191 0002767 221.1480 138.9570 15.63661058462648
ZHUHAI-1 OVS-02         
1 43440U 18040B   26185.61827387  .00010537  00000+0  42124-3 0  9993
2 43440  97.0382 201.8154 0003947 162.6942 197.4432 15.25267319455375
ZHUHAI-1 OHS-02         
1 43441U 18040C   26185.59349229  .00014321  00000+0  55576-3 0  9995
2 43441  97.0362 208.7492 0010260 157.7214 202.4473 15.26148268116938
GAOFEN-6                
1 43484U 18048A   26185.14927319  .00000270  00000+0  46409-4 0  9997
2 43484  98.0962 247.8248 0012019 112.9072 247.3408 14.76373246435899
LUOJIA-1 01             
1 43485U 18048B   26185.59886851  .00003900  00000+0  43724-3 0  9991
2 43485  97.8098 263.5081 0010342  68.2735 291.9581 14.87354301436805
PAKTES 1A               
1 43529U 18056A   26185.62570891  .00001543  00000+0  13166-3 0  9995
2 43529  98.1289 342.8557 0020474  52.1449 308.1621 14.99168901434536
PRSS-1                  
1 43530U 18056B   26185.60941361  .00001232  00000+0  16173-3 0  9995
2 43530  97.7810 252.9966 0001357  77.8708 282.2658 14.82016506431016
HAIYANG-1C              
1 43609U 18068A   26185.61681277  .00000326  00000+0  13176-3 0  9996
2 43609  98.5184 257.6730 0011774  47.9630 312.2555 14.34184923409586
SSTL S1-4               
1 43618U 18071A   26185.61046576  .00000819  00000+0  77493-4 0  9997
2 43618  97.5010  56.4981 0002312  97.7682 262.3802 14.96197012425549
HAIYANG-2B              
1 43655U 18081A   26185.64483425 -.00000153  00000+0 -10657-3 0  9991
2 43655  99.3282 194.1376 0000416 161.3382 198.7785 13.79308440387332
CFOSAT                  
1 43662U 18083A   26185.44829539  .00004246  00000+0  22141-3 0  9995
2 43662  97.3607 189.4708 0002174  80.4026 279.7453 15.16484713425059
TEN-KOH                 
1 43677U 18084G   26185.50006302  .00003641  00000+0  27519-3 0  9996
2 43677  98.0740  18.5915 0010412  62.9328 297.2957 15.03004485418761
DIWATA-2B               
1 43678U 18084H   26185.57496054  .00003028  00000+0  24498-3 0  9993
2 43678  98.1207  22.5420 0013064 116.7030 243.5531 15.00529470418823
STARS-AO                
1 43679U 18084J   26185.55157974  .00011265  00000+0  56917-3 0  9990
2 43679  98.0482  40.5934 0003520 101.6233 258.5394 15.17257478420103
AUTCUBE 2               
1 43681U 18084K   26185.32547301  .00005373  00000+0  33284-3 0  9990
2 43681  98.0697  32.4087 0008670 353.9984   6.1139 15.10208222419512
METOP-C                 
1 43689U 18087A   26185.59448250  .00000144  00000+0  85661-4 0  9991
2 43689  98.6635 244.8793 0002181 107.2589 252.8828 14.21517124397305
ES'HAIL 2               
1 43700U 18090A   26185.58373536  .00000157  00000+0  00000+0 0  9995
2 43700   0.0129  60.5903 0002294  81.3212  16.6260  1.00273806 27855
MOHAMMED VI-B           
1 43717U 18095A   26185.65429183  .00001115  00000+0  16515-3 0  9993
2 43717  97.9550 257.7388 0001657  96.6261 263.5138 14.77072780410767
HYSIS                   
1 43719U 18096A   26185.60290988  .00001265  00000+0  17979-3 0  9991
2 43719  97.9830 252.2141 0001873  89.8232 270.3193 14.78653012409993
COSMOS 2530 (RODNIK-S *)
1 43751U 18097A   26185.60316003 -.00000161  00000+0 -12359-2 0  9997
2 43751  82.5118 211.4720 0019429   2.3580 357.7587 12.42881195344450
COSMOS 2531 (RODNIK-S *)
1 43752U 18097B   26185.62500638 -.00000086  00000+0 -68981-3 0  9998
2 43752  82.5163 212.5229 0017076  21.8888 338.2918 12.42912734344478
