OBJECT_NAME,OBJECT_ID,EPOCH,MEAN_MOTION,ECCENTRICITY,INCLINATION,RA_OF_ASC_NODE,ARG_OF_PERICENTER,MEAN_ANOMALY,EPHEMERIS_TYPE,CLASSIFICATION_TYPE,NORAD_CAT_ID,ELEMENT_SET_NO,REV_AT_EPOCH,BSTAR,MEAN_MOTION_DOT,MEAN_MOTION_DDOT
JILIN-1 07,2018-008E,2026-07-04T07:18:23.146848,15.35016425,.00080315,97.1763,204.7785,10.7227,349.4186,0,U,43159,999,46762,.33798543E-3,.1142E-3,0
JILIN-1 08,2018-008F,2026-07-04T12:17:28.253184,15.33918461,.0006622,97.1798,204.2782,30.1470,330.0153,0,U,43160,999,46760,.30388913E-3,.9903E-4,0
S-NET D,2018-014G,2026-07-04T11:35:06.885312,15.16844458,.00069882,97.5342,90.1654,330.2368,29.8466,0,U,43186,999,46138,.46958929E-3,.918E-4,0
S-NET B,2018-014H,2026-07-04T03:57:06.693120,15.16805289,.00075624,97.5348,89.8363,325.2617,34.8121,0,U,43187,999,46133,.33422961E-3,.6505E-4,0
S-NET A,2018-014J,2026-07-04T11:33:21.638016,15.16853371,.00074185,97.5358,90.3636,325.0367,35.0378,0,U,43188,999,46138,.47549404E-3,.9299E-4,0
S-NET C,2018-014K,2026-07-03T16:57:50.186304,15.16791813,.00086395,97.5379,89.6708,318.2558,41.8015,0,U,43189,999,45981,.30072174E-3,.5845E-4,0
PAZ,2018-020A,2026-07-03T12:11:49.013952,15.19162918,.00017603,97.4451,191.6618,89.4544,270.6892,0,U,43215,999,46348,.12352566E-3,.2529E-4,0
GOES 17,2018-022A,2026-07-04T13:27:45.381024,1.00271170,.00007036,0.9785,85.4405,51.4573,258.1135,0,U,43226,999,3059,0,-.17E-5,0
LKW-4,2018-025A,2026-07-03T22:01:45.852384,15.63661058,.00027676,97.6355,357.1191,221.1480,138.9570,0,U,43236,999,46264,.5325091E-3,.49634E-3,0
ZHUHAI-1 OVS-02,2018-040B,2026-07-04T14:50:18.862368,15.25267319,.00039473,97.0382,201.8154,162.6942,197.4432,0,U,43440,999,45537,.42124024E-3,.10537E-3,0
ZHUHAI-1 OHS-02,2018-040C,2026-07-04T14:14:37.733856,15.26148268,.00102601,97.0362,208.7492,157.7214,202.4473,0,U,43441,999,11693,.55576055E-3,.14321E-3,0
GAOFEN-6,2018-048A,2026-07-04T03:34:57.203616,14.76373246,.00120196,98.0962,247.8248,112.9072,247.3408,0,U,43484,999,43589,.46408784E-4,.27E-5,0
LUOJIA-1 01,2018-048B,2026-07-04T14:22:22.239264,14.87354301,.00103422,97.8098,263.5081,68.2735,291.9581,0,U,43485,999,43680,.43724109E-3,.39E-4,0
PAKTES 1A,2018-056A,2026-07-04T15:01:01.249824,14.99168901,.00204743,98.1289,342.8557,52.1449,308.1621,0,U,43529,999,43453,.13166033E-3,.1543E-4,0
PRSS-1,2018-056B,2026-07-04T14:37:33.335904,14.82016506,.00013576,97.7810,252.9966,77.8708,282.2658,0,U,43530,999,43101,.1617311E-3,.1232E-4,0
HAIYANG-1C,2018-068A,2026-07-04T14:48:12.623328,14.34184923,.0011774,98.5184,257.6730,47.9630,312.2555,0,U,43609,999,40958,.13176306E-3,.326E-5,0
SSTL S1-4,2018-071A,2026-07-04T14:39:04.241664,14.96197012,.00023123,97.5010,56.4981,97.7682,262.3802,0,U,43618,999,42554,.77492888E-4,.819E-5,0
HAIYANG-2B,2018-081A,2026-07-04T15:28:33.679200,13.79308440,.00004167,99.3282,194.1376,161.3382,198.7785,0,U,43655,999,38733,-.10657229E-3,-.153E-5,0
CFOSAT,2018-083A,2026-07-04T10:45:32.721696,15.16484713,.00021742,97.3607,189.4708,80.4026,279.7453,0,U,43662,999,42505,.22140581E-3,.4246E-4,0
TEN-KOH,2018-084G,2026-07-04T12:00:05.444928,15.03004485,.00104123,98.0740,18.5915,62.9328,297.2957,0,U,43677,999,41876,.27518679E-3,.3641E-4,0
DIWATA-2B,2018-084H,2026-07-04T13:47:56.590656,15.00529470,.00130648,98.1207,22.5420,116.7030,243.5531,0,U,43678,999,41882,.24498462E-3,.3028E-4,0
STARS-AO,2018-084J,2026-07-04T13:14:16.489536,15.17257478,.00035208,98.0482,40.5934,101.6233,258.5394,0,U,43679,999,42010,.56916502E-3,.11265E-3,0
AUTCUBE 2,2018-084K,2026-07-04T07:48:40.868064,15.10208222,.00086701,98.0697,32.4087,353.9984,6.1139,0,U,43681,999,41951,.33284021E-3,.5373E-4,0
METOP-C,2018-087A,2026-07-04T14:16:03.288000,14.21517124,.00021813,98.6635,244.8793,107.2589,252.8828,0,U,43689,999,39730,.8566137E-4,.144E-5,0
ES'HAIL 2,2018-090A,2026-07-04T14:00:34.735104,1.00273806,.00022943,0.0129,60.5903,81.3212,16.6260,0,U,43700,999,2785,0,.157E-5,0
MOHAMMED VI-B,2018-095A,2026-07-04T15:42:10.814112,14.77072780,.00016579,97.9550,257.7388,96.6261,263.5138,0,U,43717,999,41076,.16515363E-3,.1115E-4,0
HYSIS,2018-096A,2026-07-04T14:28:11.413632,14.78653012,.00018735,97.9830,252.2141,89.8232,270.3193,0,U,43719,999,40999,.17979239E-3,.1265E-4,0
COSMOS 2530 (RODNIK-S 16),2018-097A,2026-07-04T14:28:33.026592,12.42881195,.00194298,82.5118,211.4720,2.3580,357.7587,0,U,43751,999,34445,-.1235863E-2,-.161E-5,0
COSMOS 2531 (RODNIK-S 17),2018-097B,2026-07-04T15:00:00.551232,12.42912734,.00170767,82.5163,212.5229,21.8888,338.2918,0,U,43752,999,34447,-.68980527E-3,-.86E-6,0
